[{"OBJECT_NAME":"STARLINK-36123","OBJECT_ID":"2025-293E","EPOCH":"2026-03-09T16:00:03.000096","MEAN_MOTION":14.98362037,"ECCENTRICITY":0.0003577,"INCLINATION":69.9998,"RA_OF_ASC_NODE":94.4135,"ARG_OF_PERICENTER":276.095,"MEAN_ANOMALY":201.5645,"EPHEMERIS_TYPE":0,"CLASSIFICATION_TYPE":"U","NORAD_CAT_ID":67007,"ELEMENT_SET_NO":999,"REV_AT_EPOCH":578,"BSTAR":-0.0036852177,"MEAN_MOTION_DOT":-0.00043829,"MEAN_MOTION_DDOT":0},{"OBJECT_NAME":"NOAA 16 DEB","OBJECT_ID":"2000-055HK","EPOCH":"2026-03-09T11:22:55.184448","MEAN_MOTION":14.96713123,"ECCENTRICITY":0.00044813,"INCLINATION":98.9091,"RA_OF_ASC_NODE":257.3123,"ARG_OF_PERICENTER":226.904,"MEAN_ANOMALY":133.1803,"EPHEMERIS_TYPE":0,"CLASSIFICATION_TYPE":"U","NORAD_CAT_ID":41307,"ELEMENT_SET_NO":999,"REV_AT_EPOCH":53055,"BSTAR":0.0073865996,"MEAN_MOTION_DOT":0.00085329,"MEAN_MOTION_DDOT":0}]
